ALOS-2                  
1 39766U 14029A   26071.96510899  .00001112  00000+0  15566-3 0  9990
2 39766  97.9187 170.5144 0001512  96.9485 263.1898 14.79516988637355
YAOGAN-29               
1 41038U 15069A   26072.03313734  .00000599  00000+0  80414-4 0  9991
2 41038  98.0145 100.4716 0001655  30.8872 329.2439 14.82999560556370
ASTRO-H (HITOMI)        
1 41337U 16012A   26071.93921212  .00003662  00000+0  21388-3 0  9994
2 41337  31.0006 335.5784 0009730   3.8567 356.2145 15.10031130552725
HXMT (HUIYAN)           
1 42758U 17034A   26072.00288691  .00006990  00000+0  34893-3 0  9995
2 42758  43.0161 358.2530 0033225 256.1397 103.5753 15.17517246483049
SAOCOM 1A               
1 43641U 18076A   26072.00099580  .00000194  00000+0  30941-4 0  9992
2 43641  97.8898 260.1264 0001426  86.6450 273.4926 14.82143687401857
H-2A R/B                
1 43682U 18084L   26071.58914021  .00021397  00000+0  50679-3 0  9991
2 43682  98.8732 289.5971 0025250  15.4084 344.7921 15.41481901406227
SAOCOM 1B               
1 46265U 20059A   26071.96472888  .00000866  00000+0  11536-3 0  9995
2 46265  97.8899 259.1884 0001420  85.0208 275.1167 14.82153462299232
CSS (TIANHE)            
1 48274U 21035A   26071.65904515  .00026654  00000+0  31305-3 0  9994
2 48274  41.4661 190.0925 0006713 290.2953  69.7164 15.60827652278071
COSMOS 2550             
1 48865U 21056A   26071.38646080 -.00000190  00000+0  60433-7 0  9999
2 48865  67.1461  32.7743 0008377 269.6455  90.3740 15.33837293263879
CZ-2C R/B               
1 52794U 22058K   26071.98382870  .00036653  00000+0  52976-3 0  9999
2 52794  50.1891 301.3419 0042118 214.7824 145.0391 15.54484444210647
CZ-2C R/B               
1 54039U 22132E   26071.57486682  .00045817  00000+0  51672-3 0  9991
2 54039  97.2966  74.9796 0020438  81.9771 278.3806 15.62131197190824
GSLV R/B                
1 54149U 22138AN  26071.72930291  .00004343  00000+0  37509-3 0  9998
2 54149  87.3879 165.3456 0023383 136.3077 224.0011 14.96799800184380
